[{"OBJECT_NAME":"STARLINK-5895","OBJECT_ID":"2023-037BC","EPOCH":"2026-03-09T22:23:45.381696","MEAN_MOTION":15.07243555,"ECCENTRICITY":0.00049855,"INCLINATION":69.9972,"RA_OF_ASC_NODE":260.028,"ARG_OF_PERICENTER":264.4993,"MEAN_ANOMALY":95.5602,"EPHEMERIS_TYPE":0,"CLASSIFICATION_TYPE":"U","NORAD_CAT_ID":55964,"ELEMENT_SET_NO":999,"REV_AT_EPOCH":16460,"BSTAR":0.00072849946,"MEAN_MOTION_DOT":0.00010921,"MEAN_MOTION_DDOT":0},{"OBJECT_NAME":"STARLINK-5960","OBJECT_ID":"2023-083AW","EPOCH":"2026-03-09T22:00:01.999584","MEAN_MOTION":15.06681708,"ECCENTRICITY":0.00012025,"INCLINATION":43.0005,"RA_OF_ASC_NODE":67.3488,"ARG_OF_PERICENTER":306.9912,"MEAN_ANOMALY":164.9708,"EPHEMERIS_TYPE":0,"CLASSIFICATION_TYPE":"U","NORAD_CAT_ID":56920,"ELEMENT_SET_NO":999,"REV_AT_EPOCH":577,"BSTAR":0.0042766737,"MEAN_MOTION_DOT":0.00064947,"MEAN_MOTION_DDOT":0}]
